*******************************************************************************
Ephemeris / WWW_USER Mon Mar 24 08:50:07 2025 Pasadena, USA      / Horizons    
*******************************************************************************
Target body name: (2018 PU7)                      {source: JPL#13}
Center body name: Earth (399)                     {source: DE441}
Center-site name: Mauna Kea
*******************************************************************************
Start time      : A.D. 2018-Dec-22 03:58:00.0000 UT      
Stop  time      : A.D. 2018-Dec-22 16:42:00.0000 UT      
Step-size       : 1 minutes
*******************************************************************************
Target pole/equ : undefined
Target radii    : undefined                                                    
Center geodetic : 204.5278, 19.8260847, 4.21024   {E-lon(deg),Lat(deg),Alt(km)}
Center cylindric: 204.5278, 6006.35451, 2151.0229 {E-lon(deg),Dxy(km),Dz(km)}
Center pole/equ : ITRF93                          {East-longitude positive}
Center radii    : 6378.137, 6378.137, 6356.752 km {Equator_a, b, pole_c}       
Target primary  : Sun
Vis. interferer : MOON (R_eq= 1737.400) km        {source: DE441}
Rel. light bend : Sun                             {source: DE441}
Rel. lght bnd GM: 1.3271E+11 km^3/s^2                                          
Small-body perts: Yes                             {source: SB441-N16}
Atmos refraction: NO (AIRLESS)
RA format       : HMS
Time format     : CAL 
Calendar mode   : Mixed Julian/Gregorian
RTS-only print  : NO       
EOP file        : eop.250321.p250617                                           
EOP coverage    : DATA-BASED 1962-JAN-20 TO 2025-MAR-21. PREDICTS-> 2025-JUN-16
Units conversion: 1 au= 149597870.700 km, c= 299792.458 km/s, 1 day= 86400.0 s 
Table cut-offs 1: Elevation (-90.0deg=NO ),Airmass (>38.000=NO), Daylight (YES)
Table cut-offs 2: Solar elongation (  0.0,180.0=NO ),Local Hour Angle( 0.0=NO )
Table cut-offs 3: RA/DEC angular rate (     0.0=NO )                           
*******************************************************************************
Initial IAU76/J2000 heliocentric ecliptic osculating elements (au, days, deg.):
  EPOCH=  2458344.5 ! 2018-Aug-14.00 (TDB)         Residual RMS= .35253        
   EC= .5418411610879256   QR= .9908981152950816   TP= 2458306.0483912583      
   OM= 307.3200871504195   W=  329.2166965634538   IN= 6.906215163822786       
  Equivalent ICRF heliocentric cartesian coordinates (au, au/d):
   X= 8.533350742151261E-01  Y=-6.504796009993946E-01  Z=-2.480927258064065E-01
  VX= 1.615085148536055E-02 VY= 9.661045842052620E-03 VZ= 6.810490395822813E-03
Asteroid physical parameters (km, seconds, rotational period in hours):        
   GM= n.a.                RAD= n.a.               ROTPER= n.a.                
   H= 23.4                 G= .150                 B-V= n.a.                   
                           ALBEDO= n.a.            STYP= n.a.                  
*******************************************************************************
 Date__(UT)__HR:MN     R.A._________(ICRF)_________DEC
******************************************************
$$SOE
 2018-Dec-22 16:16 Nm  00 02 21.656056 +09 10 25.85346
 2018-Dec-22 16:17 Nm  00 02 21.720209 +09 10 26.10558
 2018-Dec-22 16:18 Nm  00 02 21.784362 +09 10 26.35771
 2018-Dec-22 16:19 Nm  00 02 21.848516 +09 10 26.60986
 2018-Dec-22 16:20 Nm  00 02 21.912669 +09 10 26.86203
 2018-Dec-22 16:21 Nm  00 02 21.976822 +09 10 27.11422
 2018-Dec-22 16:22 Nm  00 02 22.040976 +09 10 27.36642
 2018-Dec-22 16:23 Nm  00 02 22.105129 +09 10 27.61864
 2018-Dec-22 16:24 Nm  00 02 22.169283 +09 10 27.87088
 2018-Dec-22 16:25 Nm  00 02 22.233436 +09 10 28.12313
 2018-Dec-22 16:26 Nm  00 02 22.297590 +09 10 28.37540
 2018-Dec-22 16:27 Nm  00 02 22.361743 +09 10 28.62768
 2018-Dec-22 16:28 Nm  00 02 22.425896 +09 10 28.87999
 2018-Dec-22 16:29 Cm  00 02 22.490049 +09 10 29.13231
 2018-Dec-22 16:30 Cm  00 02 22.554202 +09 10 29.38464
 2018-Dec-22 16:31 Cm  00 02 22.618355 +09 10 29.63699
 2018-Dec-22 16:32 Cm  00 02 22.682507 +09 10 29.88936
 2018-Dec-22 16:33 Cm  00 02 22.746659 +09 10 30.14175
 2018-Dec-22 16:34 Cm  00 02 22.810811 +09 10 30.39415
 2018-Dec-22 16:35 Cm  00 02 22.874963 +09 10 30.64657
 2018-Dec-22 16:36 Cm  00 02 22.939114 +09 10 30.89901
 2018-Dec-22 16:37 Cm  00 02 23.003265 +09 10 31.15146
 2018-Dec-22 16:38 Cm  00 02 23.067415 +09 10 31.40393
 2018-Dec-22 16:39 Cm  00 02 23.131565 +09 10 31.65642
 2018-Dec-22 16:40 Cm  00 02 23.195715 +09 10 31.90892
 2018-Dec-22 16:41 Cm  00 02 23.259864 +09 10 32.16144
 2018-Dec-22 16:42 Cm  00 02 23.324012 +09 10 32.41398
